start=new Date('2023-04-08T00:00:00.000Z').valueOf();
sats=[{"MEAN_MOTION_DDOT":"0.0000000000000","APOAPSIS":"540.526","FILE":"3882626","MEAN_MOTION_DOT":"0.00009403","EPOCH":"2023-04-07T05:51:19.514304","NORAD_CAT_ID":"51110","PERIAPSIS":"538.906","MEAN_ANOMALY":"257.5983","INCLINATION":"53.2196","GP_ID":"229684228","CENTER_NAME":"EARTH","RCS_SIZE":"LARGE","SITE":"AFETR","DECAY_DATE":null,"ECCENTRICITY":"0.00011710","SEMIMAJOR_AXIS":"6917.851","OBJECT_ID":"2022-005G","COUNTRY_CODE":"US","LAUNCH_DATE":"2022-01-19","CLASSIFICATION_TYPE":"U","RA_OF_ASC_NODE":"41.0863","MEAN_ELEMENT_THEORY":"SGP4","OBJECT_NAME":"STARLINK-3344","BSTAR":"0.00060792000000","TLE_LINE2":"2 51110  53.2196  41.0863 0001171 102.5141 257.5983 15.08849678 67730","ARG_OF_PERICENTER":"102.5141","TIME_SYSTEM":"UTC","OBJECT_TYPE":"PAYLOAD","PERIOD":"95.437","MEAN_MOTION":"15.08849678","REF_FRAME":"TEME","REV_AT_EPOCH":"6773","EPHEMERIS_TYPE":"0","TLE_LINE1":"1 51110U 22005G   23097.24397586  .00009403  00000-0  60792-3 0  9995","ELEMENT_SET_NO":"999"},{"BSTAR":"0.00002128000000","TLE_LINE2":"2 51111  53.2180  41.1814 0001286  91.5302 268.5837 15.08837417 67721","ARG_OF_PERICENTER":"91.5302","PERIOD":"95.438","REF_FRAME":"TEME","MEAN_MOTION":"15.08837417","REV_AT_EPOCH":"6772","EPHEMERIS_TYPE":"0","TLE_LINE1":"1 51111U 22005H   23097.21821373  .00000051  00000-0  21280-4 0  9999","ELEMENT_SET_NO":"999","TIME_SYSTEM":"UTC","OBJECT_TYPE":"PAYLOAD","PERIAPSIS":"538.864","INCLINATION":"53.2180","MEAN_ANOMALY":"268.5837","CENTER_NAME":"EARTH","GP_ID":"229684478","MEAN_MOTION_DDOT":"0.0000000000000","APOAPSIS":"540.643","FILE":"3882626","MEAN_MOTION_DOT":"0.00000051","EPOCH":"2023-04-07T05:14:13.666272","NORAD_CAT_ID":"51111","CLASSIFICATION_TYPE":"U","RA_OF_ASC_NODE":"41.1814","MEAN_ELEMENT_THEORY":"SGP4","OBJECT_NAME":"STARLINK-3173","RCS_SIZE":"LARGE","DECAY_DATE":null,"SITE":"AFETR","ECCENTRICITY":"0.00012860","SEMIMAJOR_AXIS":"6917.888","OBJECT_ID":"2022-005H","COUNTRY_CODE":"US","LAUNCH_DATE":"2022-01-19"},{"ARG_OF_PERICENTER":"97.6892","TLE_LINE2":"2 51112  53.2173  41.0829 0001220  97.6892 262.4239 15.08844624 67736","BSTAR":"0.00052406000000","TIME_SYSTEM":"UTC","OBJECT_TYPE":"PAYLOAD","REF_FRAME":"TEME","MEAN_MOTION":"15.08844624","PERIOD":"95.437","TLE_LINE1":"1 51112U 22005J   23097.24029504  .00008063  00000-0  52406-3 0  9993","ELEMENT_SET_NO":"999","EPHEMERIS_TYPE":"0","REV_AT_EPOCH":"6773","MEAN_MOTION_DOT":"0.00008063","FILE":"3882626","APOAPSIS":"540.575","MEAN_MOTION_DDOT":"0.0000000000000","NORAD_CAT_ID":"51112","EPOCH":"2023-04-07T05:46:01.491456","MEAN_ANOMALY":"262.4239","PERIAPSIS":"538.887","INCLINATION":"53.2173","CENTER_NAME":"EARTH","GP_ID":"229684728","SITE":"AFETR","DECAY_DATE":null,"ECCENTRICITY":"0.00012200","RCS_SIZE":"LARGE","LAUNCH_DATE":"2022-01-19","COUNTRY_CODE":"US","OBJECT_ID":"2022-005J","SEMIMAJOR_AXIS":"6917.866","RA_OF_ASC_NODE":"41.0829","CLASSIFICATION_TYPE":"U","OBJECT_NAME":"STARLINK-3374","MEAN_ELEMENT_THEORY":"SGP4"},{"TLE_LINE2":"2 51113  53.2179  38.4615 0001500  95.9872 264.1292 15.08837578 68926","ARG_OF_PERICENTER":"95.9872","BSTAR":"0.00042044000000","REV_AT_EPOCH":"6892","ELEMENT_SET_NO":"999","TLE_LINE1":"1 51113U 22005K   23097.82541294  .00006409  00000-0  42044-3 0  9992","EPHEMERIS_TYPE":"0","PERIOD":"95.438","MEAN_MOTION":"15.08837578","REF_FRAME":"TEME","OBJECT_TYPE":"PAYLOAD","TIME_SYSTEM":"UTC","GP_ID":"229690429","CENTER_NAME":"EARTH","MEAN_ANOMALY":"264.1292","PERIAPSIS":"538.715","INCLINATION":"53.2179","NORAD_CAT_ID":"51113","EPOCH":"2023-04-07T19:48:35.678016","FILE":"3882744","MEAN_MOTION_DOT":"0.00006409","MEAN_MOTION_DDOT":"0.0000000000000","APOAPSIS":"540.790","OBJECT_NAME":"STARLINK-3372","MEAN_ELEMENT_THEORY":"SGP4","CLASSIFICATION_TYPE":"U","RA_OF_ASC_NODE":"38.4615","COUNTRY_CODE":"US","LAUNCH_DATE":"2022-01-19","SEMIMAJOR_AXIS":"6917.888","OBJECT_ID":"2022-005K","DECAY_DATE":null,"SITE":"AFETR","ECCENTRICITY":"0.00015000","RCS_SIZE":"LARGE"},{"CLASSIFICATION_TYPE":"U","RA_OF_ASC_NODE":"41.0483","OBJECT_NAME":"STARLINK-3375","MEAN_ELEMENT_THEORY":"SGP4","DECAY_DATE":null,"ECCENTRICITY":"0.00011650","SITE":"AFETR","RCS_SIZE":"LARGE","COUNTRY_CODE":"US","LAUNCH_DATE":"2022-01-19","SEMIMAJOR_AXIS":"6917.871","OBJECT_ID":"2022-005L","PERIAPSIS":"538.930","MEAN_ANOMALY":"256.5325","INCLINATION":"53.2175","CENTER_NAME":"EARTH","GP_ID":"229683728","FILE":"3882626","MEAN_MOTION_DOT":"0.00001507","MEAN_MOTION_DDOT":"0.0000000000000","APOAPSIS":"540.542","NORAD_CAT_ID":"51114","EPOCH":"2023-04-07T05:56:37.200192","PERIOD":"95.437","REF_FRAME":"TEME","MEAN_MOTION":"15.08843076","REV_AT_EPOCH":"6773","ELEMENT_SET_NO":"999","TLE_LINE1":"1 51114U 22005L   23097.24765278  .00001507  00000-0  11273-3 0  9993","EPHEMERIS_TYPE":"0","TIME_SYSTEM":"UTC","OBJECT_TYPE":"PAYLOAD","TLE_LINE2":"2 51114  53.2175  41.0483 0001165 103.5797 256.5325 15.08843076 67735","ARG_OF_PERICENTER":"103.5797","BSTAR":"0.00011273000000"},{"BSTAR":"0.00016290000000","ARG_OF_PERICENTER":"99.7992","TLE_LINE2":"2 51115  53.2181  41.1682 0001335  99.7992 260.3151 15.08843871 67729","MEAN_MOTION":"15.08843871","REF_FRAME":"TEME","PERIOD":"95.437","TLE_LINE1":"1 51115U 22005M   23097.22189260  .00002306  00000-0  16290-3 0  9995","ELEMENT_SET_NO":"999","EPHEMERIS_TYPE":"0","REV_AT_EPOCH":"6772","TIME_SYSTEM":"UTC","OBJECT_TYPE":"PAYLOAD","INCLINATION":"53.2181","PERIAPSIS":"538.810","MEAN_ANOMALY":"260.3151","GP_ID":"229683978","CENTER_NAME":"EARTH","APOAPSIS":"540.657","MEAN_MOTION_DDOT":"0.0000000000000","MEAN_MOTION_DOT":"0.00002306","FILE":"3882626","EPOCH":"2023-04-07T05:19:31.520640","NORAD_CAT_ID":"51115","RA_OF_ASC_NODE":"41.1682","CLASSIFICATION_TYPE":"U","MEAN_ELEMENT_THEORY":"SGP4","OBJECT_NAME":"STARLINK-3397","RCS_SIZE":"LARGE","DECAY_DATE":null,"ECCENTRICITY":"0.00013350","SITE":"AFETR","OBJECT_ID":"2022-005M","SEMIMAJOR_AXIS":"6917.869","LAUNCH_DATE":"2022-01-19","COUNTRY_CODE":"US"},{"NORAD_CAT_ID":"51116","EPOCH":"2023-04-07T05:40:43.418496","MEAN_MOTION_DOT":"0.00003968","FILE":"3882626","APOAPSIS":"540.544","MEAN_MOTION_DDOT":"0.0000000000000","GP_ID":"229685229","CENTER_NAME":"EARTH","PERIAPSIS":"538.905","MEAN_ANOMALY":"257.0494","INCLINATION":"53.2175","LAUNCH_DATE":"2022-01-19","COUNTRY_CODE":"US","OBJECT_ID":"2022-005N","SEMIMAJOR_AXIS":"6917.859","ECCENTRICITY":"0.00011850","DECAY_DATE":null,"SITE":"AFETR","RCS_SIZE":"LARGE","OBJECT_NAME":"STARLINK-3243","MEAN_ELEMENT_THEORY":"SGP4","RA_OF_ASC_NODE":"41.0985","CLASSIFICATION_TYPE":"U","ARG_OF_PERICENTER":"103.0630","TLE_LINE2":"2 51116  53.2175  41.0985 0001185 103.0630 257.0494 15.08846843 67724","BSTAR":"0.00026719000000","OBJECT_TYPE":"PAYLOAD","TIME_SYSTEM":"UTC","EPHEMERIS_TYPE":"0","TLE_LINE1":"1 51116U 22005N   23097.23661364  .00003968  00000-0  26719-3 0  9999","ELEMENT_SET_NO":"999","REV_AT_EPOCH":"6772","REF_FRAME":"TEME","MEAN_MOTION":"15.08846843","PERIOD":"95.437"},{"BSTAR":"0.00011281000000","TLE_LINE2":"2 51117  53.2164  40.9167 0001155 107.1764 252.9355 15.08843250 67733","ARG_OF_PERICENTER":"107.1764","PERIOD":"95.437","REF_FRAME":"TEME","MEAN_MOTION":"15.08843250","REV_AT_EPOCH":"6773","TLE_LINE1":"1 51117U 22005P   23097.27068385  .00001508  00000-0  11281-3 0  9994","ELEMENT_SET_NO":"999","EPHEMERIS_TYPE":"0","TIME_SYSTEM":"UTC","OBJECT_TYPE":"PAYLOAD","PERIAPSIS":"538.936","INCLINATION":"53.2164","MEAN_ANOMALY":"252.9355","GP_ID":"229684975","CENTER_NAME":"EARTH","MEAN_MOTION_DDOT":"0.0000000000000","APOAPSIS":"540.534","FILE":"3882626","MEAN_MOTION_DOT":"0.00001508","EPOCH":"2023-04-07T06:29:47.084640","NORAD_CAT_ID":"51117","CLASSIFICATION_TYPE":"U","RA_OF_ASC_NODE":"40.9167","MEAN_ELEMENT_THEORY":"SGP4","OBJECT_NAME":"STARLINK-3391","RCS_SIZE":"LARGE","SITE":"AFETR","DECAY_DATE":null,"ECCENTRICITY":"0.00011550","SEMIMAJOR_AXIS":"6917.870","OBJECT_ID":"2022-005P","COUNTRY_CODE":"US","LAUNCH_DATE":"2022-01-19"},{"BSTAR":"0.00016996000000","ARG_OF_PERICENTER":"125.2341","TLE_LINE2":"2 51118  53.2172  41.1480 0001193 125.2341 234.8762 15.08843056 67722","EPHEMERIS_TYPE":"0","TLE_LINE1":"1 51118U 22005Q   23097.22557190  .00002418  00000-0  16996-3 0  9996","ELEMENT_SET_NO":"999","REV_AT_EPOCH":"6772","MEAN_MOTION":"15.08843056","REF_FRAME":"TEME","PERIOD":"95.437","OBJECT_TYPE":"PAYLOAD","TIME_SYSTEM":"UTC","CENTER_NAME":"EARTH","GP_ID":"229684229","INCLINATION":"53.2172","PERIAPSIS":"538.911","MEAN_ANOMALY":"234.8762","EPOCH":"2023-04-07T05:24:49.412160","NORAD_CAT_ID":"51118","APOAPSIS":"540.561","MEAN_MOTION_DDOT":"0.0000000000000","MEAN_MOTION_DOT":"0.00002418","FILE":"3882626","MEAN_ELEMENT_THEORY":"SGP4","OBJECT_NAME":"STARLINK-3394","RA_OF_ASC_NODE":"41.1480","CLASSIFICATION_TYPE":"U","OBJECT_ID":"2022-005Q","SEMIMAJOR_AXIS":"6917.871","LAUNCH_DATE":"2022-01-19","COUNTRY_CODE":"US","RCS_SIZE":"LARGE","DECAY_DATE":null,"ECCENTRICITY":"0.00011930","SITE":"AFETR"},{"TLE_LINE2":"2 51119  53.2175  38.2742 0001363 112.2033 247.9104 15.08839191 68931","ARG_OF_PERICENTER":"112.2033","BSTAR":"-0.00004615200000","PERIOD":"95.438","MEAN_MOTION":"15.08839191","REF_FRAME":"TEME","REV_AT_EPOCH":"6893","TLE_LINE1":"1 51119U 22005R   23097.86589205 -.00001022  00000-0 -46152-4 0  9999","EPHEMERIS_TYPE":"0","ELEMENT_SET_NO":"999","TIME_SYSTEM":"UTC","OBJECT_TYPE":"PAYLOAD","MEAN_ANOMALY":"247.9104","PERIAPSIS":"538.805","INCLINATION":"53.2175","CENTER_NAME":"EARTH","GP_ID":"229693063","FILE":"3882840","MEAN_MOTION_DOT":"-0.00001022","MEAN_MOTION_DDOT":"0.0000000000000","APOAPSIS":"540.691","NORAD_CAT_ID":"51119","EPOCH":"2023-04-07T20:46:53.073120","CLASSIFICATION_TYPE":"U","RA_OF_ASC_NODE":"38.2742","OBJECT_NAME":"STARLINK-3390","MEAN_ELEMENT_THEORY":"SGP4","ECCENTRICITY":"0.00013630","DECAY_DATE":null,"SITE":"AFETR","RCS_SIZE":"LARGE","COUNTRY_CODE":"US","LAUNCH_DATE":"2022-01-19","SEMIMAJOR_AXIS":"6917.883","OBJECT_ID":"2022-005R"}];
